{"features":[{"geometry":{"coordinates":[-65.2170208037282,-26.8332209186353],"type":"Point"},"properties":{"id":"90084","nombre":"Capital","provincia":{"id":"90","nombre":"Tucumán"}},"type":"Feature"},{"geometry":{"coordinates":[-64.8195981132229,-26.5305481465544],"type":"Point"},"properties":{"id":"90007","nombre":"Burruyacú","provincia":{"id":"90","nombre":"Tucumán"}},"type":"Feature"},{"geometry":{"coordinates":[-65.4789084982894,-26.9759689777425],"type":"Point"},"properties":{"id":"90028","nombre":"Famaillá","provincia":{"id":"90","nombre":"Tucumán"}},"type":"Feature"},{"geometry":{"coordinates":[-64.9738642266054,-26.9180036848972],"type":"Point"},"properties":{"id":"90014","nombre":"Cruz Alta","provincia":{"id":"90","nombre":"Tucumán"}},"type":"Feature"},{"geometry":{"coordinates":[-65.4310245938907,-26.8622353459017],"type":"Point"},"properties":{"id":"90063","nombre":"Lules","provincia":{"id":"90","nombre":"Tucumán"}},"type":"Feature"},{"geometry":{"coordinates":[-65.3411739273315,-26.7839244723358],"type":"Point"},"properties":{"id":"90119","nombre":"Yerba Buena","provincia":{"id":"90","nombre":"Tucumán"}},"type":"Feature"},{"geometry":{"coordinates":[-65.4640739296384,-26.6601491447319],"type":"Point"},"properties":{"id":"90105","nombre":"Tafí Viejo","provincia":{"id":"90","nombre":"Tucumán"}},"type":"Feature"},{"geometry":{"coordinates":[-65.4058207897255,-26.3434123363847],"type":"Point"},"properties":{"id":"90112","nombre":"Trancas","provincia":{"id":"90","nombre":"Tucumán"}},"type":"Feature"},{"geometry":{"coordinates":[-65.8893504834043,-26.5914686020616],"type":"Point"},"properties":{"id":"90098","nombre":"Tafí del Valle","provincia":{"id":"90","nombre":"Tucumán"}},"type":"Feature"},{"geometry":{"coordinates":[-65.5977877083311,-27.7940604809292],"type":"Point"},"properties":{"id":"90049","nombre":"La Cocha","provincia":{"id":"90","nombre":"Tucumán"}},"type":"Feature"},{"geometry":{"coordinates":[-65.2550360276541,-27.7132775964524],"type":"Point"},"properties":{"id":"90035","nombre":"Graneros","provincia":{"id":"90","nombre":"Tucumán"}},"type":"Feature"},{"geometry":{"coordinates":[-65.7831912587906,-27.6060757021473],"type":"Point"},"properties":{"id":"90042","nombre":"Juan Bautista Alberdi","provincia":{"id":"90","nombre":"Tucumán"}},"type":"Feature"},{"geometry":{"coordinates":[-65.7518266389415,-27.4501203542874],"type":"Point"},"properties":{"id":"90077","nombre":"Río Chico","provincia":{"id":"90","nombre":"Tucumán"}},"type":"Feature"},{"geometry":{"coordinates":[-65.2924847788807,-27.4238370613532],"type":"Point"},"properties":{"id":"90091","nombre":"Simoca","provincia":{"id":"90","nombre":"Tucumán"}},"type":"Feature"},{"geometry":{"coordinates":[-65.8110637206058,-27.2696018679715],"type":"Point"},"properties":{"id":"90021","nombre":"Chicligasta","provincia":{"id":"90","nombre":"Tucumán"}},"type":"Feature"},{"geometry":{"coordinates":[-65.6430768814482,-27.1106201705702],"type":"Point"},"properties":{"id":"90070","nombre":"Monteros","provincia":{"id":"90","nombre":"Tucumán"}},"type":"Feature"},{"geometry":{"coordinates":[-65.0848647351414,-27.1918831757327],"type":"Point"},"properties":{"id":"90056","nombre":"Leales","provincia":{"id":"90","nombre":"Tucumán"}},"type":"Feature"}],"type":"FeatureCollection"}
