{"type":"FeatureCollection","features":[{"type":"Feature","properties":{},"geometry":{"type":"Polygon","coordinates":[[[-66.178,-26.483],[-66.177,-26.487],[-66.175,-26.49],[-66.174,-26.493],[-66.17,-26.495],[-66.168,-26.496],[-66.165,-26.501],[-66.164,-26.503],[-66.166,-26.504],[-66.173,-26.511],[-66.172,-26.514],[-66.172,-26.521],[-66.17,-26.525],[-66.169,-26.528],[-66.167,-26.53],[-66.166,-26.533],[-66.165,-26.535],[-66.166,-26.54],[-66.167,-26.541],[-66.169,-26.542],[-66.17,-26.545],[-66.17,-26.547],[-66.169,-26.549],[-66.169,-26.55],[-66.167,-26.553],[-66.167,-26.557],[-66.168,-26.567],[-66.17,-26.57],[-66.173,-26.572],[-66.175,-26.574],[-66.176,-26.578],[-66.168,-26.601],[-66.169,-26.607],[-66.169,-26.612],[-66.172,-26.629],[-66.171,-26.631],[-66.165,-26.629],[-66.162,-26.627],[-66.156,-26.627],[-66.153,-26.625],[-66.044,-26.6],[-66.04,-26.602],[-65.972,-26.645],[-65.845,-26.73],[-65.836,-26.736],[-65.833,-26.738],[-65.83,-26.741],[-65.83,-26.744],[-65.831,-26.748],[-65.832,-26.75],[-65.834,-26.751],[-65.837,-26.751],[-65.84,-26.752],[-65.842,-26.754],[-65.846,-26.755],[-65.854,-26.76],[-65.858,-26.766],[-65.858,-26.769],[-65.859,-26.771],[-65.859,-26.773],[-65.86,-26.776],[-65.86,-26.777],[-65.86,-26.783],[-65.863,-26.789],[-65.865,-26.792],[-65.866,-26.796],[-65.873,-26.802],[-65.881,-26.806],[-65.88,-26.809],[-65.876,-26.814],[-65.875,-26.816],[-65.874,-26.818],[-65.875,-26.82],[-65.878,-26.823],[-65.879,-26.824],[-65.883,-26.827],[-65.884,-26.828],[-65.887,-26.83],[-65.888,-26.834],[-65.892,-26.839],[-65.894,-26.842],[-65.894,-26.844],[-65.894,-26.847],[-65.894,-26.85],[-65.891,-26.853],[-65.89,-26.856],[-65.892,-26.857],[-65.893,-26.86],[-65.895,-26.862],[-65.898,-26.863],[-65.901,-26.864],[-65.9,-26.867],[-65.897,-26.87],[-65.896,-26.873],[-65.893,-26.874],[-65.892,-26.876],[-65.89,-26.878],[-65.888,-26.881],[-65.886,-26.882],[-65.884,-26.882],[-65.881,-26.881],[-65.879,-26.881],[-65.877,-26.883],[-65.876,-26.886],[-65.876,-26.889],[-65.875,-26.891],[-65.871,-26.894],[-65.867,-26.897],[-65.86,-26.901],[-65.858,-26.901],[-65.857,-26.904],[-65.857,-26.907],[-65.859,-26.91],[-65.859,-26.913],[-65.858,-26.914],[-65.857,-26.916],[-65.857,-26.922],[-65.857,-26.924],[-65.858,-26.929],[-65.859,-26.931],[-65.862,-26.933],[-65.865,-26.933],[-65.866,-26.932],[-65.869,-26.931],[-65.875,-26.933],[-65.877,-26.941],[-65.88,-26.941],[-65.881,-26.944],[-65.883,-26.948],[-65.883,-26.949],[-65.883,-26.951],[-65.885,-26.954],[-65.886,-26.956],[-65.886,-26.959],[-65.886,-26.961],[-65.889,-26.968],[-65.89,-26.97],[-65.89,-26.971],[-65.892,-26.972],[-65.891,-26.975],[-65.896,-26.978],[-65.899,-26.979],[-65.901,-26.979],[-65.904,-26.979],[-65.909,-26.98],[-65.912,-26.981],[-65.914,-26.983],[-65.916,-26.989],[-65.917,-26.99],[-65.918,-26.99],[-65.918,-26.991],[-65.917,-26.992],[-65.916,-26.993],[-65.915,-26.994],[-65.915,-26.997],[-65.917,-26.999],[-65.916,-27.004],[-65.915,-27.005],[-65.913,-27.007],[-65.914,-27.008],[-65.915,-27.01],[-65.915,-27.012],[-65.917,-27.015],[-65.919,-27.016],[-65.921,-27.018],[-65.922,-27.018],[-65.926,-27.018],[-65.928,-27.018],[-65.929,-27.018],[-65.932,-27.017],[-65.933,-27.018],[-65.934,-27.019],[-65.939,-27.019],[-65.943,-27.021],[-65.946,-27.023],[-65.951,-27.027],[-65.952,-27.028],[-65.953,-27.029],[-65.954,-27.03],[-65.955,-27.03],[-65.955,-27.031],[-65.956,-27.033],[-65.958,-27.033],[-65.961,-27.033],[-65.962,-27.033],[-65.964,-27.033],[-65.966,-27.035],[-65.965,-27.037],[-65.965,-27.038],[-65.965,-27.041],[-65.965,-27.043],[-65.965,-27.044],[-65.965,-27.045],[-65.965,-27.046],[-65.965,-27.047],[-65.965,-27.048],[-65.966,-27.05],[-65.968,-27.051],[-65.969,-27.053],[-65.971,-27.054],[-65.973,-27.054],[-65.974,-27.054],[-65.974,-27.055],[-65.975,-27.056],[-65.975,-27.057],[-65.974,-27.058],[-65.974,-27.06],[-65.974,-27.062],[-65.974,-27.064],[-65.974,-27.065],[-65.973,-27.066],[-65.972,-27.067],[-65.971,-27.068],[-65.971,-27.069],[-65.971,-27.07],[-65.972,-27.07],[-65.972,-27.072],[-65.974,-27.075],[-65.974,-27.076],[-65.974,-27.077],[-65.974,-27.08],[-65.975,-27.081],[-65.977,-27.084],[-65.978,-27.088],[-65.981,-27.091],[-65.983,-27.095],[-65.985,-27.097],[-65.986,-27.097],[-65.987,-27.1],[-65.988,-27.102],[-65.988,-27.103],[-65.99,-27.105],[-65.991,-27.106],[-65.993,-27.106],[-65.994,-27.106],[-65.996,-27.106],[-65.998,-27.104],[-65.999,-27.103],[-66,-27.103],[-66.001,-27.104],[-66.003,-27.105],[-66.005,-27.106],[-66.007,-27.109],[-66.008,-27.11],[-66.009,-27.111],[-66.011,-27.111],[-66.015,-27.112],[-66.016,-27.112],[-66.017,-27.112],[-66.018,-27.113],[-66.02,-27.113],[-66.021,-27.114],[-66.021,-27.115],[-66.02,-27.118],[-66.021,-27.12],[-66.022,-27.121],[-66.023,-27.121],[-66.024,-27.122],[-66.028,-27.122],[-66.03,-27.123],[-66.031,-27.124],[-66.034,-27.125],[-66.036,-27.125],[-66.039,-27.128],[-66.039,-27.132],[-66.039,-27.133],[-66.041,-27.135],[-66.042,-27.136],[-66.044,-27.138],[-66.047,-27.14],[-66.047,-27.141],[-66.05,-27.142],[-66.052,-27.143],[-66.055,-27.144],[-66.056,-27.15],[-66.056,-27.152],[-66.055,-27.155],[-66.056,-27.156],[-66.06,-27.158],[-66.061,-27.159],[-66.062,-27.16],[-66.064,-27.162],[-66.064,-27.164],[-66.063,-27.166],[-66.062,-27.167],[-66.062,-27.168],[-66.063,-27.169],[-66.064,-27.17],[-66.067,-27.174],[-66.068,-27.175],[-66.068,-27.177],[-66.068,-27.179],[-66.069,-27.185],[-66.069,-27.187],[-66.069,-27.189],[-66.07,-27.189],[-66.073,-27.19],[-66.074,-27.191],[-66.075,-27.191],[-66.077,-27.194],[-66.078,-27.195],[-66.08,-27.196],[-66.081,-27.197],[-66.082,-27.198],[-66.083,-27.201],[-66.081,-27.205],[-66.08,-27.207],[-66.079,-27.208],[-66.078,-27.209],[-66.08,-27.21],[-66.083,-27.211],[-66.084,-27.212],[-66.086,-27.212],[-66.089,-27.213],[-66.091,-27.213],[-66.093,-27.213],[-66.094,-27.213],[-66.096,-27.213],[-66.097,-27.213],[-66.098,-27.213],[-66.099,-27.214],[-66.101,-27.215],[-66.104,-27.216],[-66.105,-27.216],[-66.107,-27.216],[-66.11,-27.216],[-66.111,-27.216],[-66.113,-27.218],[-66.115,-27.221],[-66.118,-27.225],[-66.119,-27.226],[-66.122,-27.227],[-66.122,-27.228],[-66.122,-27.23],[-66.123,-27.234],[-66.123,-27.236],[-66.124,-27.237],[-66.125,-27.238],[-66.127,-27.238],[-66.129,-27.239],[-66.131,-27.24],[-66.132,-27.24],[-66.133,-27.241],[-66.134,-27.244],[-66.134,-27.246],[-66.134,-27.248],[-66.134,-27.25],[-66.133,-27.253],[-66.137,-27.254],[-66.139,-27.256],[-66.141,-27.261],[-66.139,-27.262],[-66.138,-27.263],[-66.137,-27.264],[-66.136,-27.264],[-66.135,-27.265],[-66.133,-27.266],[-66.131,-27.266],[-66.13,-27.265],[-66.129,-27.265],[-66.126,-27.265],[-66.125,-27.266],[-66.123,-27.266],[-66.122,-27.266],[-66.121,-27.266],[-66.119,-27.266],[-66.117,-27.266],[-66.115,-27.268],[-66.114,-27.269],[-66.113,-27.27],[-66.112,-27.271],[-66.111,-27.272],[-66.111,-27.273],[-66.11,-27.273],[-66.108,-27.273],[-66.108,-27.274],[-66.106,-27.274],[-66.105,-27.275],[-66.102,-27.275],[-66.101,-27.275],[-66.098,-27.277],[-66.096,-27.277],[-66.093,-27.277],[-66.091,-27.279],[-66.089,-27.281],[-66.088,-27.282],[-66.086,-27.283],[-66.085,-27.284],[-66.081,-27.286],[-66.08,-27.287],[-66.079,-27.287],[-66.077,-27.288],[-66.075,-27.288],[-66.073,-27.29],[-66.072,-27.29],[-66.071,-27.29],[-66.068,-27.291],[-66.067,-27.291],[-66.066,-27.292],[-66.065,-27.292],[-66.064,-27.292],[-66.063,-27.292],[-66.062,-27.292],[-66.062,-27.291],[-66.061,-27.291],[-66.061,-27.292],[-66.06,-27.292],[-66.06,-27.293],[-66.059,-27.294],[-66.058,-27.294],[-66.057,-27.293],[-66.056,-27.294],[-66.055,-27.294],[-66.054,-27.294],[-66.053,-27.294],[-66.052,-27.295],[-66.053,-27.295],[-66.052,-27.295],[-66.052,-27.296],[-66.051,-27.296],[-66.05,-27.296],[-66.049,-27.296],[-66.048,-27.296],[-66.047,-27.296],[-66.047,-27.295],[-66.046,-27.295],[-66.045,-27.295],[-66.044,-27.296],[-66.043,-27.296],[-66.042,-27.296],[-66.041,-27.296],[-66.04,-27.296],[-66.039,-27.296],[-66.038,-27.296],[-66.037,-27.297],[-66.036,-27.297],[-66.034,-27.297],[-66.033,-27.298],[-66.032,-27.298],[-66.031,-27.298],[-66.03,-27.298],[-66.029,-27.298],[-66.028,-27.299],[-66.027,-27.3],[-66.025,-27.3],[-66.025,-27.301],[-66.021,-27.303],[-66.019,-27.304],[-66.018,-27.304],[-66.017,-27.304],[-66.017,-27.305],[-66.015,-27.306],[-66.014,-27.307],[-66.014,-27.308],[-66.013,-27.309],[-66.012,-27.31],[-66.011,-27.31],[-66.011,-27.311],[-66.01,-27.311],[-66.009,-27.311],[-66.008,-27.311],[-66.007,-27.312],[-66.003,-27.312],[-65.994,-27.315],[-65.987,-27.322],[-65.986,-27.323],[-65.985,-27.324],[-65.983,-27.326],[-65.982,-27.326],[-65.98,-27.328],[-65.979,-27.329],[-65.975,-27.33],[-65.973,-27.332],[-65.972,-27.333],[-65.972,-27.334],[-65.97,-27.345],[-65.97,-27.349],[-65.967,-27.356],[-65.965,-27.358],[-65.965,-27.36],[-65.966,-27.363],[-65.968,-27.369],[-65.967,-27.373],[-65.966,-27.378],[-65.965,-27.382],[-65.965,-27.385],[-65.967,-27.399],[-65.968,-27.402],[-65.969,-27.407],[-65.972,-27.41],[-65.974,-27.412],[-65.974,-27.415],[-65.973,-27.418],[-65.973,-27.419],[-65.973,-27.42],[-65.973,-27.421],[-65.973,-27.422],[-65.972,-27.425],[-65.97,-27.428],[-65.969,-27.429],[-65.968,-27.429],[-65.973,-27.437],[-65.975,-27.44],[-65.975,-27.443],[-65.974,-27.449],[-65.975,-27.454],[-65.975,-27.46],[-65.974,-27.463],[-65.973,-27.467],[-65.973,-27.475],[-65.973,-27.478],[-65.973,-27.481],[-65.974,-27.487],[-65.974,-27.49],[-65.976,-27.494],[-65.974,-27.5],[-65.974,-27.503],[-65.973,-27.505],[-65.972,-27.507],[-65.97,-27.509],[-65.969,-27.513],[-65.968,-27.516],[-65.967,-27.517],[-65.967,-27.518],[-65.968,-27.519],[-65.969,-27.521],[-65.97,-27.522],[-65.971,-27.523],[-65.971,-27.525],[-65.97,-27.527],[-65.969,-27.528],[-65.965,-27.538],[-65.965,-27.54],[-65.966,-27.543],[-65.964,-27.546],[-65.962,-27.547],[-65.96,-27.55],[-65.96,-27.551],[-65.958,-27.553],[-65.958,-27.554],[-65.956,-27.555],[-65.95,-27.562],[-65.95,-27.566],[-65.956,-27.571],[-65.956,-27.572],[-65.955,-27.576],[-65.954,-27.578],[-65.952,-27.579],[-65.951,-27.582],[-65.949,-27.586],[-65.949,-27.589],[-65.944,-27.595],[-65.943,-27.604],[-65.942,-27.605],[-65.942,-27.606],[-65.941,-27.607],[-65.94,-27.609],[-65.94,-27.616],[-65.94,-27.617],[-65.939,-27.619],[-65.937,-27.619],[-65.937,-27.62],[-65.936,-27.621],[-65.935,-27.622],[-65.934,-27.622],[-65.934,-27.625],[-65.934,-27.626],[-65.933,-27.628],[-65.934,-27.63],[-65.933,-27.631],[-65.933,-27.632],[-65.933,-27.634],[-65.933,-27.635],[-65.932,-27.636],[-65.932,-27.638],[-65.931,-27.64],[-65.93,-27.641],[-65.929,-27.642],[-65.929,-27.644],[-65.928,-27.646],[-65.926,-27.649],[-65.924,-27.65],[-65.923,-27.652],[-65.923,-27.653],[-65.923,-27.656],[-65.921,-27.658],[-65.92,-27.659],[-65.92,-27.661],[-65.919,-27.662],[-65.917,-27.663],[-65.916,-27.666],[-65.915,-27.669],[-65.875,-27.673],[-65.875,-27.676],[-65.873,-27.679],[-65.871,-27.683],[-65.866,-27.689],[-65.865,-27.693],[-65.865,-27.696],[-65.866,-27.7],[-65.865,-27.702],[-65.863,-27.706],[-65.865,-27.709],[-65.863,-27.713],[-65.862,-27.715],[-65.862,-27.721],[-65.86,-27.724],[-65.857,-27.73],[-65.855,-27.733],[-65.853,-27.742],[-65.848,-27.751],[-65.846,-27.761],[-65.846,-27.765],[-65.845,-27.771],[-65.841,-27.78],[-65.841,-27.784],[-65.839,-27.788],[-65.839,-27.794],[-65.836,-27.797],[-65.834,-27.801],[-65.834,-27.806],[-65.834,-27.807],[-65.833,-27.809],[-65.832,-27.811],[-65.83,-27.812],[-65.829,-27.815],[-65.828,-27.819],[-65.833,-27.838],[-65.833,-27.843],[-65.832,-27.849],[-65.832,-27.851],[-65.831,-27.851],[-65.829,-27.851],[-65.829,-27.849],[-65.829,-27.848],[-65.827,-27.847],[-65.826,-27.845],[-65.825,-27.843],[-65.825,-27.842],[-65.824,-27.84],[-65.822,-27.837],[-65.82,-27.834],[-65.819,-27.831],[-65.819,-27.829],[-65.82,-27.828],[-65.82,-27.827],[-65.82,-27.826],[-65.819,-27.826],[-65.818,-27.827],[-65.816,-27.827],[-65.815,-27.827],[-65.815,-27.826],[-65.816,-27.826],[-65.816,-27.825],[-65.818,-27.825],[-65.819,-27.824],[-65.82,-27.824],[-65.821,-27.824],[-65.821,-27.82],[-65.82,-27.82],[-65.819,-27.82],[-65.819,-27.821],[-65.817,-27.821],[-65.815,-27.821],[-65.813,-27.821],[-65.811,-27.82],[-65.81,-27.82],[-65.809,-27.821],[-65.809,-27.82],[-65.809,-27.818],[-65.809,-27.817],[-65.809,-27.815],[-65.808,-27.815],[-65.807,-27.815],[-65.806,-27.815],[-65.807,-27.816],[-65.806,-27.816],[-65.806,-27.817],[-65.805,-27.817],[-65.804,-27.816],[-65.803,-27.816],[-65.802,-27.815],[-65.801,-27.813],[-65.8,-27.81],[-65.799,-27.809],[-65.799,-27.807],[-65.799,-27.806],[-65.798,-27.806],[-65.796,-27.807],[-65.795,-27.807],[-65.795,-27.805],[-65.795,-27.804],[-65.795,-27.802],[-65.795,-27.8],[-65.796,-27.799],[-65.797,-27.799],[-65.798,-27.799],[-65.798,-27.798],[-65.799,-27.796],[-65.799,-27.795],[-65.799,-27.794],[-65.798,-27.792],[-65.799,-27.79],[-65.799,-27.788],[-65.799,-27.787],[-65.798,-27.786],[-65.795,-27.784],[-65.794,-27.784],[-65.793,-27.783],[-65.793,-27.782],[-65.794,-27.781],[-65.796,-27.779],[-65.798,-27.778],[-65.799,-27.777],[-65.799,-27.776],[-65.798,-27.774],[-65.798,-27.773],[-65.798,-27.771],[-65.8,-27.77],[-65.801,-27.77],[-65.802,-27.771],[-65.803,-27.77],[-65.804,-27.769],[-65.804,-27.768],[-65.758,-27.766],[-65.756,-27.769],[-65.754,-27.77],[-65.752,-27.769],[-65.751,-27.769],[-65.75,-27.769],[-65.75,-27.771],[-65.75,-27.772],[-65.75,-27.774],[-65.749,-27.774],[-65.748,-27.773],[-65.747,-27.774],[-65.747,-27.775],[-65.746,-27.775],[-65.745,-27.777],[-65.744,-27.777],[-65.743,-27.778],[-65.742,-27.779],[-65.742,-27.78],[-65.742,-27.781],[-65.74,-27.782],[-65.739,-27.783],[-65.737,-27.784],[-65.734,-27.787],[-65.733,-27.789],[-65.732,-27.792],[-65.729,-27.792],[-65.727,-27.793],[-65.727,-27.794],[-65.726,-27.795],[-65.724,-27.796],[-65.723,-27.796],[-65.722,-27.797],[-65.721,-27.797],[-65.721,-27.798],[-65.72,-27.799],[-65.72,-27.8],[-65.72,-27.801],[-65.72,-27.802],[-65.719,-27.803],[-65.719,-27.805],[-65.718,-27.806],[-65.718,-27.807],[-65.715,-27.809],[-65.715,-27.811],[-65.715,-27.812],[-65.713,-27.812],[-65.711,-27.813],[-65.707,-27.813],[-65.703,-27.816],[-65.702,-27.818],[-65.702,-27.819],[-65.703,-27.819],[-65.705,-27.821],[-65.706,-27.824],[-65.705,-27.824],[-65.704,-27.825],[-65.702,-27.825],[-65.701,-27.826],[-65.702,-27.827],[-65.703,-27.827],[-65.702,-27.83],[-65.703,-27.83],[-65.704,-27.83],[-65.704,-27.831],[-65.702,-27.833],[-65.702,-27.834],[-65.699,-27.836],[-65.7,-27.837],[-65.701,-27.837],[-65.701,-27.839],[-65.699,-27.841],[-65.699,-27.842],[-65.699,-27.844],[-65.7,-27.847],[-65.698,-27.85],[-65.696,-27.851],[-65.696,-27.852],[-65.696,-27.853],[-65.698,-27.854],[-65.697,-27.855],[-65.699,-27.857],[-65.699,-27.859],[-65.697,-27.859],[-65.697,-27.86],[-65.697,-27.861],[-65.697,-27.862],[-65.695,-27.862],[-65.696,-27.864],[-65.696,-27.865],[-65.699,-27.865],[-65.7,-27.865],[-65.7,-27.867],[-65.699,-27.867],[-65.699,-27.868],[-65.699,-27.869],[-65.7,-27.869],[-65.699,-27.87],[-65.699,-27.872],[-65.699,-27.873],[-65.699,-27.874],[-65.698,-27.876],[-65.699,-27.877],[-65.7,-27.879],[-65.698,-27.88],[-65.698,-27.881],[-65.699,-27.882],[-65.699,-27.884],[-65.698,-27.885],[-65.698,-27.886],[-65.698,-27.887],[-65.699,-27.888],[-65.699,-27.89],[-65.698,-27.891],[-65.698,-27.892],[-65.696,-27.894],[-65.695,-27.896],[-65.695,-27.897],[-65.695,-27.899],[-65.694,-27.899],[-65.693,-27.899],[-65.693,-27.9],[-65.693,-27.902],[-65.693,-27.903],[-65.693,-27.905],[-65.691,-27.906],[-65.69,-27.907],[-65.69,-27.908],[-65.69,-27.909],[-65.69,-27.91],[-65.689,-27.91],[-65.689,-27.911],[-65.689,-27.912],[-65.688,-27.913],[-65.688,-27.914],[-65.687,-27.915],[-65.687,-27.916],[-65.685,-27.916],[-65.684,-27.917],[-65.683,-27.918],[-65.682,-27.918],[-65.679,-27.919],[-65.679,-27.92],[-65.679,-27.922],[-65.678,-27.923],[-65.678,-27.924],[-65.677,-27.924],[-65.676,-27.926],[-65.674,-27.928],[-65.672,-27.93],[-65.671,-27.93],[-65.672,-27.931],[-65.673,-27.932],[-65.674,-27.932],[-65.675,-27.933],[-65.675,-27.934],[-65.675,-27.935],[-65.674,-27.936],[-65.674,-27.937],[-65.673,-27.938],[-65.673,-27.939],[-65.672,-27.94],[-65.671,-27.94],[-65.669,-27.941],[-65.668,-27.942],[-65.668,-27.943],[-65.669,-27.943],[-65.67,-27.943],[-65.672,-27.944],[-65.671,-27.945],[-65.671,-27.946],[-65.672,-27.947],[-65.671,-27.948],[-65.671,-27.949],[-65.669,-27.952],[-65.669,-27.953],[-65.669,-27.954],[-65.669,-27.956],[-65.668,-27.957],[-65.668,-27.958],[-65.668,-27.96],[-65.668,-27.961],[-65.669,-27.962],[-65.669,-27.963],[-65.668,-27.964],[-65.668,-27.965],[-65.668,-27.966],[-65.668,-27.967],[-65.668,-27.968],[-65.668,-27.97],[-65.625,-27.97],[-65.625,-27.971],[-65.624,-27.971],[-65.625,-27.972],[-65.625,-27.973],[-65.624,-27.973],[-65.624,-27.974],[-65.624,-27.973],[-65.623,-27.973],[-65.622,-27.972],[-65.621,-27.972],[-65.62,-27.972],[-65.619,-27.971],[-65.618,-27.971],[-65.618,-27.972],[-65.617,-27.972],[-65.617,-27.973],[-65.616,-27.973],[-65.616,-27.974],[-65.616,-27.975],[-65.617,-27.975],[-65.618,-27.976],[-65.618,-27.977],[-65.618,-27.978],[-65.617,-27.979],[-65.617,-27.98],[-65.617,-27.981],[-65.616,-27.982],[-65.616,-27.984],[-65.615,-27.985],[-65.615,-27.986],[-65.615,-27.987],[-65.614,-27.988],[-65.614,-27.989],[-65.613,-27.99],[-65.613,-27.991],[-65.612,-27.991],[-65.61,-27.991],[-65.608,-27.992],[-65.607,-27.992],[-65.606,-27.993],[-65.606,-27.994],[-65.605,-27.994],[-65.605,-27.995],[-65.605,-27.996],[-65.604,-27.996],[-65.603,-27.997],[-65.602,-27.998],[-65.601,-27.999],[-65.6,-27.999],[-65.599,-27.999],[-65.598,-27.999],[-65.598,-28],[-65.597,-28],[-65.596,-28],[-65.595,-28],[-65.594,-28],[-65.593,-28],[-65.593,-27.999],[-65.592,-27.999],[-65.591,-27.999],[-65.59,-27.999],[-65.589,-27.999],[-65.588,-27.999],[-65.588,-28],[-65.588,-28.001],[-65.588,-28.002],[-65.588,-28.003],[-65.587,-28.003],[-65.586,-28.004],[-65.585,-28.005],[-65.585,-28.006],[-65.584,-28.006],[-65.584,-28.007],[-65.582,-28.008],[-65.581,-28.008],[-65.578,-28.01],[-65.578,-28.011],[-65.577,-28.012],[-65.577,-28.013],[-65.576,-28.014],[-65.574,-28.014],[-65.57,-28.013],[-65.568,-28.013],[-65.567,-28.012],[-65.565,-28.01],[-65.563,-28.009],[-65.561,-28.007],[-65.561,-28.006],[-65.56,-28.005],[-65.559,-28.002],[-65.559,-27.997],[-65.559,-27.995],[-65.557,-27.994],[-65.554,-27.994],[-65.553,-27.993],[-65.553,-27.992],[-65.552,-27.99],[-65.55,-27.989],[-65.548,-27.99],[-65.546,-27.989],[-65.545,-27.987],[-65.544,-27.984],[-65.546,-27.98],[-65.545,-27.977],[-65.542,-27.975],[-65.541,-27.973],[-65.539,-27.972],[-65.539,-27.971],[-65.538,-27.971],[-65.537,-27.971],[-65.536,-27.971],[-65.535,-27.971],[-65.533,-27.968],[-65.53,-27.968],[-65.53,-27.965],[-65.525,-27.965],[-65.521,-27.963],[-65.52,-27.961],[-65.521,-27.959],[-65.522,-27.956],[-65.523,-27.952],[-65.523,-27.95],[-65.523,-27.949],[-65.52,-27.947],[-65.517,-27.947],[-65.514,-27.945],[-65.509,-27.943],[-65.507,-27.942],[-65.506,-27.94],[-65.507,-27.938],[-65.508,-27.936],[-65.505,-27.933],[-65.504,-27.932],[-65.504,-27.931],[-65.503,-27.931],[-65.499,-27.931],[-65.499,-27.93],[-65.499,-27.929],[-65.501,-27.926],[-65.501,-27.924],[-65.497,-27.922],[-65.495,-27.922],[-65.493,-27.921],[-65.492,-27.919],[-65.491,-27.918],[-65.489,-27.918],[-65.488,-27.919],[-65.487,-27.919],[-65.486,-27.919],[-65.485,-27.919],[-65.484,-27.918],[-65.483,-27.917],[-65.482,-27.916],[-65.481,-27.917],[-65.479,-27.916],[-65.477,-27.915],[-65.476,-27.915],[-65.475,-27.914],[-65.474,-27.914],[-65.473,-27.915],[-65.472,-27.915],[-65.472,-27.914],[-65.471,-27.913],[-65.471,-27.912],[-65.47,-27.911],[-65.469,-27.91],[-65.469,-27.909],[-65.468,-27.909],[-65.468,-27.908],[-65.467,-27.909],[-65.466,-27.91],[-65.465,-27.909],[-65.463,-27.909],[-65.461,-27.908],[-65.459,-27.906],[-65.458,-27.905],[-65.457,-27.905],[-65.456,-27.903],[-65.456,-27.902],[-65.455,-27.9],[-65.452,-27.899],[-65.452,-27.898],[-65.452,-27.897],[-65.451,-27.897],[-65.45,-27.897],[-65.448,-27.895],[-65.445,-27.893],[-65.443,-27.892],[-65.442,-27.891],[-65.442,-27.89],[-65.44,-27.889],[-65.438,-27.888],[-65.437,-27.887],[-65.436,-27.887],[-65.435,-27.886],[-65.435,-27.885],[-65.434,-27.885],[-65.434,-27.884],[-65.433,-27.884],[-65.432,-27.885],[-65.43,-27.884],[-65.429,-27.884],[-65.428,-27.885],[-65.428,-27.886],[-65.427,-27.887],[-65.426,-27.887],[-65.425,-27.888],[-65.424,-27.888],[-65.423,-27.888],[-65.421,-27.888],[-65.42,-27.888],[-65.419,-27.887],[-65.419,-27.886],[-65.418,-27.884],[-65.418,-27.883],[-65.417,-27.882],[-65.416,-27.881],[-65.415,-27.88],[-65.414,-27.879],[-65.414,-27.878],[-65.413,-27.877],[-65.412,-27.877],[-65.411,-27.876],[-65.41,-27.877],[-65.409,-27.877],[-65.408,-27.877],[-65.408,-27.876],[-65.407,-27.875],[-65.406,-27.875],[-65.405,-27.874],[-65.404,-27.873],[-65.403,-27.872],[-65.401,-27.872],[-65.4,-27.872],[-65.399,-27.872],[-65.399,-27.871],[-65.398,-27.869],[-65.397,-27.868],[-65.395,-27.867],[-65.394,-27.867],[-65.393,-27.865],[-65.393,-27.864],[-65.393,-27.863],[-65.394,-27.862],[-65.395,-27.862],[-65.395,-27.861],[-65.396,-27.86],[-65.396,-27.859],[-65.397,-27.859],[-65.397,-27.858],[-65.397,-27.857],[-65.396,-27.856],[-65.395,-27.856],[-65.394,-27.855],[-65.395,-27.853],[-65.396,-27.852],[-65.396,-27.851],[-65.395,-27.85],[-65.394,-27.849],[-65.392,-27.848],[-65.391,-27.848],[-65.39,-27.848],[-65.389,-27.847],[-65.388,-27.846],[-65.388,-27.845],[-65.387,-27.845],[-65.386,-27.846],[-65.385,-27.846],[-65.384,-27.846],[-65.383,-27.846],[-65.382,-27.846],[-65.381,-27.846],[-65.38,-27.846],[-65.379,-27.846],[-65.378,-27.846],[-65.378,-27.845],[-65.378,-27.844],[-65.377,-27.844],[-65.376,-27.843],[-65.373,-27.842],[-65.371,-27.842],[-65.369,-27.841],[-65.367,-27.839],[-65.365,-27.837],[-65.364,-27.836],[-65.364,-27.835],[-65.364,-27.834],[-65.365,-27.834],[-65.366,-27.834],[-65.367,-27.833],[-65.366,-27.832],[-65.365,-27.831],[-65.364,-27.831],[-65.362,-27.831],[-65.361,-27.83],[-65.361,-27.829],[-65.33,-27.846],[-65.288,-27.871],[-65.171,-27.946],[-65.178,-27.916],[-65.169,-27.917],[-65.159,-27.877],[-65.142,-27.881],[-65.143,-27.885],[-65.107,-27.893],[-65.092,-27.893],[-65.058,-27.884],[-65.039,-27.879],[-65.032,-27.849],[-65.03,-27.841],[-65.007,-27.762],[-65.024,-27.709],[-64.988,-27.734],[-65.001,-27.689],[-65.002,-27.686],[-65.03,-27.587],[-65.007,-27.583],[-65.012,-27.571],[-64.988,-27.566],[-64.979,-27.56],[-64.979,-27.557],[-64.974,-27.553],[-64.968,-27.549],[-64.956,-27.546],[-64.989,-27.493],[-65.012,-27.466],[-64.964,-27.389],[-64.937,-27.358],[-64.933,-27.345],[-64.855,-27.318],[-64.851,-27.301],[-64.816,-27.168],[-64.813,-27.157],[-64.811,-27.149],[-64.798,-27.151],[-64.782,-27.083],[-64.781,-27.076],[-64.771,-27.078],[-64.749,-27.005],[-64.76,-27.003],[-64.761,-27.003],[-64.761,-27.002],[-64.753,-26.966],[-64.733,-26.97],[-64.711,-26.974],[-64.707,-26.958],[-64.689,-26.878],[-64.672,-26.8],[-64.622,-26.809],[-64.596,-26.69],[-64.59,-26.661],[-64.573,-26.664],[-64.505,-26.677],[-64.505,-26.602],[-64.507,-26.576],[-64.508,-26.566],[-64.509,-26.549],[-64.521,-26.548],[-64.522,-26.545],[-64.521,-26.539],[-64.521,-26.536],[-64.521,-26.528],[-64.516,-26.511],[-64.518,-26.508],[-64.517,-26.504],[-64.517,-26.489],[-64.519,-26.48],[-64.526,-26.462],[-64.523,-26.447],[-64.527,-26.432],[-64.529,-26.42],[-64.534,-26.409],[-64.531,-26.399],[-64.533,-26.388],[-64.529,-26.37],[-64.522,-26.356],[-64.518,-26.348],[-64.514,-26.347],[-64.51,-26.344],[-64.506,-26.34],[-64.498,-26.331],[-64.492,-26.321],[-64.482,-26.307],[-64.503,-26.239],[-64.495,-26.219],[-64.496,-26.218],[-64.497,-26.219],[-64.497,-26.218],[-64.497,-26.217],[-64.497,-26.216],[-64.498,-26.216],[-64.499,-26.216],[-64.5,-26.217],[-64.501,-26.217],[-64.502,-26.217],[-64.503,-26.217],[-64.504,-26.217],[-64.504,-26.218],[-64.505,-26.218],[-64.506,-26.218],[-64.507,-26.218],[-64.508,-26.218],[-64.509,-26.218],[-64.509,-26.217],[-64.509,-26.216],[-64.51,-26.215],[-64.511,-26.215],[-64.511,-26.216],[-64.511,-26.217],[-64.511,-26.218],[-64.512,-26.218],[-64.512,-26.219],[-64.513,-26.219],[-64.514,-26.22],[-64.514,-26.221],[-64.515,-26.221],[-64.515,-26.222],[-64.516,-26.222],[-64.516,-26.223],[-64.517,-26.223],[-64.517,-26.224],[-64.518,-26.224],[-64.519,-26.224],[-64.52,-26.224],[-64.52,-26.225],[-64.52,-26.224],[-64.521,-26.224],[-64.522,-26.224],[-64.523,-26.224],[-64.524,-26.224],[-64.525,-26.223],[-64.526,-26.223],[-64.526,-26.224],[-64.526,-26.223],[-64.527,-26.223],[-64.528,-26.223],[-64.528,-26.224],[-64.529,-26.224],[-64.529,-26.225],[-64.53,-26.225],[-64.531,-26.225],[-64.531,-26.224],[-64.532,-26.224],[-64.532,-26.223],[-64.533,-26.222],[-64.534,-26.222],[-64.534,-26.223],[-64.535,-26.223],[-64.536,-26.223],[-64.536,-26.222],[-64.535,-26.222],[-64.535,-26.221],[-64.536,-26.221],[-64.537,-26.221],[-64.538,-26.222],[-64.539,-26.222],[-64.54,-26.222],[-64.541,-26.222],[-64.541,-26.221],[-64.541,-26.22],[-64.541,-26.219],[-64.542,-26.219],[-64.542,-26.22],[-64.543,-26.22],[-64.543,-26.221],[-64.543,-26.222],[-64.544,-26.223],[-64.544,-26.222],[-64.545,-26.222],[-64.545,-26.221],[-64.546,-26.221],[-64.547,-26.221],[-64.548,-26.221],[-64.549,-26.221],[-64.549,-26.222],[-64.549,-26.223],[-64.549,-26.224],[-64.55,-26.224],[-64.55,-26.225],[-64.55,-26.226],[-64.55,-26.227],[-64.551,-26.227],[-64.551,-26.226],[-64.552,-26.226],[-64.553,-26.226],[-64.553,-26.225],[-64.553,-26.224],[-64.552,-26.224],[-64.552,-26.223],[-64.552,-26.222],[-64.553,-26.222],[-64.554,-26.222],[-64.555,-26.222],[-64.555,-26.223],[-64.556,-26.223],[-64.557,-26.223],[-64.558,-26.223],[-64.558,-26.224],[-64.559,-26.224],[-64.56,-26.224],[-64.561,-26.224],[-64.562,-26.225],[-64.563,-26.226],[-64.564,-26.227],[-64.565,-26.227],[-64.565,-26.226],[-64.564,-26.226],[-64.564,-26.225],[-64.565,-26.225],[-64.564,-26.225],[-64.565,-26.224],[-64.566,-26.224],[-64.567,-26.224],[-64.567,-26.223],[-64.568,-26.223],[-64.568,-26.224],[-64.569,-26.224],[-64.57,-26.224],[-64.571,-26.224],[-64.571,-26.223],[-64.572,-26.223],[-64.572,-26.222],[-64.572,-26.221],[-64.573,-26.221],[-64.574,-26.221],[-64.574,-26.222],[-64.575,-26.222],[-64.576,-26.222],[-64.576,-26.221],[-64.577,-26.221],[-64.578,-26.221],[-64.578,-26.22],[-64.579,-26.22],[-64.579,-26.219],[-64.58,-26.219],[-64.58,-26.22],[-64.581,-26.221],[-64.581,-26.222],[-64.582,-26.222],[-64.582,-26.223],[-64.583,-26.224],[-64.584,-26.224],[-64.585,-26.224],[-64.585,-26.223],[-64.586,-26.223],[-64.586,-26.222],[-64.587,-26.222],[-64.588,-26.222],[-64.588,-26.221],[-64.589,-26.221],[-64.589,-26.22],[-64.59,-26.22],[-64.59,-26.221],[-64.591,-26.222],[-64.591,-26.223],[-64.592,-26.224],[-64.592,-26.225],[-64.592,-26.226],[-64.593,-26.226],[-64.594,-26.226],[-64.594,-26.225],[-64.594,-26.224],[-64.593,-26.224],[-64.593,-26.223],[-64.594,-26.222],[-64.594,-26.223],[-64.595,-26.223],[-64.596,-26.223],[-64.596,-26.224],[-64.597,-26.224],[-64.598,-26.224],[-64.598,-26.225],[-64.598,-26.226],[-64.597,-26.227],[-64.597,-26.228],[-64.597,-26.229],[-64.598,-26.229],[-64.598,-26.23],[-64.599,-26.23],[-64.599,-26.231],[-64.6,-26.231],[-64.601,-26.23],[-64.602,-26.229],[-64.603,-26.229],[-64.604,-26.228],[-64.605,-26.228],[-64.606,-26.228],[-64.607,-26.228],[-64.607,-26.227],[-64.607,-26.226],[-64.608,-26.226],[-64.608,-26.227],[-64.609,-26.228],[-64.609,-26.229],[-64.609,-26.23],[-64.61,-26.23],[-64.61,-26.231],[-64.61,-26.232],[-64.611,-26.232],[-64.612,-26.232],[-64.613,-26.232],[-64.613,-26.233],[-64.614,-26.233],[-64.615,-26.233],[-64.615,-26.232],[-64.615,-26.231],[-64.616,-26.231],[-64.616,-26.23],[-64.617,-26.231],[-64.618,-26.231],[-64.618,-26.23],[-64.618,-26.229],[-64.617,-26.229],[-64.617,-26.228],[-64.617,-26.227],[-64.617,-26.226],[-64.618,-26.226],[-64.619,-26.226],[-64.62,-26.226],[-64.62,-26.227],[-64.621,-26.227],[-64.622,-26.226],[-64.622,-26.225],[-64.622,-26.224],[-64.623,-26.225],[-64.624,-26.225],[-64.624,-26.226],[-64.624,-26.227],[-64.624,-26.228],[-64.625,-26.228],[-64.625,-26.229],[-64.626,-26.229],[-64.627,-26.229],[-64.628,-26.23],[-64.628,-26.231],[-64.628,-26.232],[-64.629,-26.232],[-64.629,-26.233],[-64.63,-26.233],[-64.63,-26.232],[-64.631,-26.232],[-64.631,-26.233],[-64.632,-26.233],[-64.632,-26.234],[-64.633,-26.234],[-64.633,-26.235],[-64.634,-26.235],[-64.635,-26.235],[-64.635,-26.234],[-64.636,-26.234],[-64.637,-26.234],[-64.637,-26.233],[-64.638,-26.233],[-64.639,-26.233],[-64.64,-26.233],[-64.641,-26.233],[-64.642,-26.233],[-64.643,-26.233],[-64.643,-26.232],[-64.644,-26.232],[-64.645,-26.232],[-64.645,-26.233],[-64.644,-26.233],[-64.644,-26.234],[-64.644,-26.235],[-64.644,-26.236],[-64.643,-26.236],[-64.642,-26.236],[-64.642,-26.237],[-64.642,-26.238],[-64.643,-26.238],[-64.643,-26.239],[-64.643,-26.238],[-64.644,-26.238],[-64.645,-26.238],[-64.646,-26.238],[-64.647,-26.238],[-64.648,-26.238],[-64.649,-26.238],[-64.65,-26.238],[-64.651,-26.239],[-64.652,-26.239],[-64.653,-26.239],[-64.654,-26.239],[-64.654,-26.24],[-64.654,-26.241],[-64.655,-26.241],[-64.655,-26.24],[-64.656,-26.24],[-64.656,-26.241],[-64.656,-26.242],[-64.657,-26.242],[-64.658,-26.242],[-64.659,-26.241],[-64.66,-26.242],[-64.661,-26.242],[-64.661,-26.243],[-64.662,-26.243],[-64.662,-26.244],[-64.663,-26.244],[-64.664,-26.244],[-64.664,-26.243],[-64.664,-26.242],[-64.665,-26.242],[-64.666,-26.242],[-64.667,-26.242],[-64.668,-26.242],[-64.669,-26.242],[-64.669,-26.241],[-64.668,-26.24],[-64.669,-26.24],[-64.67,-26.24],[-64.671,-26.24],[-64.671,-26.239],[-64.672,-26.239],[-64.672,-26.24],[-64.672,-26.241],[-64.673,-26.241],[-64.674,-26.241],[-64.675,-26.241],[-64.675,-26.24],[-64.675,-26.239],[-64.676,-26.239],[-64.676,-26.238],[-64.677,-26.237],[-64.678,-26.237],[-64.678,-26.238],[-64.679,-26.238],[-64.68,-26.238],[-64.681,-26.238],[-64.682,-26.239],[-64.682,-26.24],[-64.683,-26.24],[-64.683,-26.239],[-64.684,-26.239],[-64.685,-26.239],[-64.686,-26.239],[-64.686,-26.238],[-64.687,-26.238],[-64.687,-26.239],[-64.687,-26.24],[-64.688,-26.24],[-64.688,-26.241],[-64.689,-26.241],[-64.689,-26.24],[-64.69,-26.24],[-64.691,-26.24],[-64.691,-26.241],[-64.692,-26.241],[-64.693,-26.24],[-64.693,-26.239],[-64.692,-26.238],[-64.693,-26.237],[-64.694,-26.237],[-64.695,-26.237],[-64.696,-26.238],[-64.697,-26.238],[-64.698,-26.238],[-64.699,-26.238],[-64.7,-26.238],[-64.701,-26.238],[-64.702,-26.238],[-64.703,-26.238],[-64.704,-26.238],[-64.705,-26.238],[-64.706,-26.237],[-64.707,-26.237],[-64.707,-26.238],[-64.708,-26.238],[-64.709,-26.238],[-64.709,-26.237],[-64.71,-26.237],[-64.71,-26.236],[-64.71,-26.235],[-64.711,-26.235],[-64.711,-26.234],[-64.712,-26.234],[-64.713,-26.235],[-64.714,-26.235],[-64.715,-26.235],[-64.714,-26.235],[-64.714,-26.236],[-64.714,-26.237],[-64.715,-26.237],[-64.716,-26.238],[-64.716,-26.237],[-64.717,-26.237],[-64.718,-26.237],[-64.719,-26.238],[-64.72,-26.238],[-64.72,-26.239],[-64.72,-26.24],[-64.721,-26.241],[-64.721,-26.24],[-64.722,-26.24],[-64.723,-26.24],[-64.724,-26.24],[-64.725,-26.24],[-64.726,-26.24],[-64.726,-26.241],[-64.726,-26.242],[-64.727,-26.242],[-64.727,-26.241],[-64.728,-26.241],[-64.729,-26.241],[-64.73,-26.241],[-64.731,-26.241],[-64.732,-26.241],[-64.733,-26.24],[-64.734,-26.24],[-64.735,-26.24],[-64.736,-26.24],[-64.737,-26.241],[-64.738,-26.241],[-64.738,-26.24],[-64.739,-26.24],[-64.739,-26.239],[-64.739,-26.238],[-64.74,-26.238],[-64.74,-26.239],[-64.74,-26.238],[-64.741,-26.238],[-64.742,-26.238],[-64.743,-26.238],[-64.743,-26.239],[-64.744,-26.239],[-64.745,-26.239],[-64.746,-26.239],[-64.747,-26.238],[-64.748,-26.237],[-64.749,-26.237],[-64.75,-26.237],[-64.75,-26.236],[-64.751,-26.235],[-64.75,-26.235],[-64.751,-26.234],[-64.752,-26.234],[-64.752,-26.233],[-64.753,-26.232],[-64.754,-26.231],[-64.754,-26.23],[-64.755,-26.229],[-64.756,-26.229],[-64.756,-26.228],[-64.757,-26.227],[-64.757,-26.226],[-64.758,-26.226],[-64.758,-26.225],[-64.759,-26.225],[-64.76,-26.225],[-64.76,-26.224],[-64.761,-26.224],[-64.762,-26.224],[-64.763,-26.224],[-64.764,-26.224],[-64.765,-26.224],[-64.766,-26.224],[-64.767,-26.224],[-64.768,-26.224],[-64.769,-26.224],[-64.77,-26.224],[-64.77,-26.225],[-64.771,-26.225],[-64.772,-26.225],[-64.772,-26.226],[-64.773,-26.226],[-64.774,-26.226],[-64.774,-26.227],[-64.775,-26.226],[-64.776,-26.226],[-64.777,-26.225],[-64.778,-26.225],[-64.779,-26.225],[-64.78,-26.224],[-64.781,-26.224],[-64.781,-26.223],[-64.782,-26.223],[-64.782,-26.224],[-64.783,-26.224],[-64.784,-26.224],[-64.785,-26.224],[-64.786,-26.224],[-64.787,-26.224],[-64.788,-26.224],[-64.788,-26.225],[-64.789,-26.225],[-64.79,-26.225],[-64.79,-26.224],[-64.791,-26.224],[-64.792,-26.224],[-64.792,-26.225],[-64.793,-26.225],[-64.793,-26.226],[-64.794,-26.226],[-64.794,-26.227],[-64.795,-26.227],[-64.795,-26.228],[-64.796,-26.228],[-64.797,-26.228],[-64.797,-26.229],[-64.798,-26.229],[-64.799,-26.229],[-64.8,-26.229],[-64.801,-26.229],[-64.801,-26.23],[-64.802,-26.23],[-64.803,-26.23],[-64.803,-26.231],[-64.804,-26.231],[-64.805,-26.231],[-64.806,-26.231],[-64.806,-26.232],[-64.807,-26.232],[-64.808,-26.233],[-64.811,-26.233],[-64.812,-26.232],[-64.813,-26.232],[-64.814,-26.232],[-64.814,-26.231],[-64.815,-26.231],[-64.815,-26.232],[-64.816,-26.232],[-64.816,-26.233],[-64.817,-26.233],[-64.818,-26.233],[-64.818,-26.234],[-64.818,-26.235],[-64.819,-26.235],[-64.819,-26.236],[-64.819,-26.237],[-64.819,-26.238],[-64.819,-26.239],[-64.82,-26.239],[-64.82,-26.24],[-64.82,-26.241],[-64.821,-26.241],[-64.821,-26.242],[-64.822,-26.242],[-64.823,-26.243],[-64.823,-26.242],[-64.824,-26.242],[-64.824,-26.241],[-64.825,-26.241],[-64.825,-26.24],[-64.826,-26.24],[-64.826,-26.239],[-64.827,-26.239],[-64.828,-26.239],[-64.829,-26.239],[-64.83,-26.239],[-64.831,-26.239],[-64.831,-26.238],[-64.832,-26.238],[-64.832,-26.237],[-64.833,-26.237],[-64.834,-26.237],[-64.835,-26.236],[-64.836,-26.237],[-64.837,-26.237],[-64.838,-26.237],[-64.839,-26.237],[-64.84,-26.237],[-64.841,-26.237],[-64.842,-26.237],[-64.842,-26.238],[-64.843,-26.238],[-64.844,-26.238],[-64.845,-26.238],[-64.845,-26.239],[-64.846,-26.239],[-64.847,-26.239],[-64.847,-26.24],[-64.847,-26.241],[-64.848,-26.241],[-64.848,-26.242],[-64.848,-26.243],[-64.848,-26.244],[-64.848,-26.245],[-64.848,-26.246],[-64.848,-26.247],[-64.847,-26.247],[-64.847,-26.248],[-64.848,-26.249],[-64.849,-26.249],[-64.85,-26.249],[-64.851,-26.249],[-64.852,-26.249],[-64.853,-26.249],[-64.853,-26.25],[-64.853,-26.251],[-64.852,-26.252],[-64.851,-26.253],[-64.851,-26.254],[-64.852,-26.254],[-64.853,-26.253],[-64.854,-26.252],[-64.855,-26.252],[-64.856,-26.252],[-64.857,-26.252],[-64.858,-26.252],[-64.858,-26.253],[-64.859,-26.253],[-64.859,-26.254],[-64.859,-26.255],[-64.859,-26.256],[-64.859,-26.257],[-64.859,-26.258],[-64.859,-26.259],[-64.86,-26.259],[-64.861,-26.259],[-64.862,-26.259],[-64.862,-26.26],[-64.863,-26.26],[-64.864,-26.26],[-64.865,-26.26],[-64.865,-26.261],[-64.866,-26.261],[-64.866,-26.262],[-64.866,-26.263],[-64.866,-26.264],[-64.866,-26.265],[-64.866,-26.266],[-64.867,-26.266],[-64.867,-26.267],[-64.868,-26.267],[-64.868,-26.268],[-64.869,-26.269],[-64.869,-26.27],[-64.871,-26.271],[-64.872,-26.272],[-64.872,-26.273],[-64.873,-26.274],[-64.873,-26.275],[-64.875,-26.275],[-64.876,-26.275],[-64.877,-26.275],[-64.878,-26.276],[-64.879,-26.277],[-64.88,-26.277],[-64.881,-26.278],[-64.882,-26.279],[-64.882,-26.28],[-64.883,-26.28],[-64.884,-26.28],[-64.885,-26.28],[-64.885,-26.281],[-64.886,-26.281],[-64.886,-26.282],[-64.887,-26.282],[-64.888,-26.282],[-64.889,-26.282],[-64.89,-26.282],[-64.89,-26.281],[-64.891,-26.281],[-64.892,-26.281],[-64.892,-26.28],[-64.893,-26.28],[-64.894,-26.279],[-64.895,-26.279],[-64.896,-26.279],[-64.897,-26.279],[-64.898,-26.28],[-64.898,-26.281],[-64.898,-26.282],[-64.899,-26.282],[-64.9,-26.283],[-64.901,-26.284],[-64.902,-26.284],[-64.902,-26.285],[-64.903,-26.286],[-64.903,-26.287],[-64.904,-26.287],[-64.904,-26.288],[-64.905,-26.288],[-64.906,-26.288],[-64.906,-26.289],[-64.907,-26.289],[-64.908,-26.289],[-64.908,-26.29],[-64.909,-26.29],[-64.91,-26.29],[-64.911,-26.291],[-64.912,-26.291],[-64.912,-26.292],[-64.913,-26.292],[-64.914,-26.291],[-64.916,-26.291],[-64.917,-26.291],[-64.918,-26.291],[-64.918,-26.292],[-64.918,-26.293],[-64.919,-26.293],[-64.92,-26.293],[-64.921,-26.293],[-64.921,-26.294],[-64.922,-26.294],[-64.923,-26.294],[-64.923,-26.292],[-64.924,-26.292],[-64.925,-26.292],[-64.926,-26.292],[-64.926,-26.293],[-64.925,-26.294],[-64.926,-26.294],[-64.927,-26.295],[-64.928,-26.295],[-64.93,-26.296],[-64.93,-26.297],[-64.931,-26.297],[-64.931,-26.296],[-64.932,-26.295],[-64.933,-26.295],[-64.933,-26.296],[-64.934,-26.297],[-64.934,-26.298],[-64.934,-26.299],[-64.935,-26.299],[-64.936,-26.299],[-64.937,-26.298],[-64.938,-26.298],[-64.939,-26.298],[-64.939,-26.297],[-64.939,-26.298],[-64.94,-26.298],[-64.94,-26.299],[-64.941,-26.298],[-64.941,-26.299],[-64.942,-26.299],[-64.941,-26.3],[-64.94,-26.3],[-64.94,-26.301],[-64.94,-26.302],[-64.941,-26.302],[-64.942,-26.302],[-64.943,-26.302],[-64.943,-26.303],[-64.943,-26.304],[-64.944,-26.304],[-64.945,-26.304],[-64.946,-26.304],[-64.946,-26.305],[-64.947,-26.305],[-64.948,-26.305],[-64.949,-26.305],[-64.949,-26.306],[-64.95,-26.306],[-64.951,-26.306],[-64.951,-26.307],[-64.952,-26.307],[-64.952,-26.306],[-64.953,-26.306],[-64.954,-26.306],[-64.955,-26.305],[-64.956,-26.305],[-64.956,-26.304],[-64.957,-26.304],[-64.958,-26.304],[-64.958,-26.303],[-64.958,-26.304],[-64.959,-26.304],[-64.96,-26.304],[-64.961,-26.304],[-64.961,-26.303],[-64.961,-26.302],[-64.961,-26.301],[-64.961,-26.3],[-64.962,-26.3],[-64.962,-26.299],[-64.963,-26.299],[-64.963,-26.298],[-64.964,-26.298],[-64.964,-26.297],[-64.963,-26.297],[-64.963,-26.296],[-64.965,-26.296],[-64.966,-26.295],[-64.965,-26.295],[-64.965,-26.294],[-64.966,-26.294],[-64.966,-26.293],[-64.967,-26.292],[-64.968,-26.291],[-64.968,-26.29],[-64.969,-26.289],[-64.969,-26.288],[-64.969,-26.287],[-64.969,-26.286],[-64.969,-26.285],[-64.969,-26.284],[-64.969,-26.283],[-64.969,-26.282],[-64.969,-26.28],[-64.969,-26.279],[-64.97,-26.278],[-64.974,-26.277],[-64.976,-26.277],[-64.979,-26.277],[-64.981,-26.278],[-64.983,-26.278],[-64.985,-26.28],[-64.987,-26.281],[-64.99,-26.281],[-64.993,-26.281],[-64.994,-26.279],[-64.997,-26.28],[-65,-26.28],[-65.001,-26.281],[-65.003,-26.282],[-65.004,-26.282],[-65.005,-26.283],[-65.006,-26.284],[-65.009,-26.283],[-65.013,-26.281],[-65.016,-26.284],[-65.018,-26.285],[-65.022,-26.287],[-65.024,-26.286],[-65.026,-26.286],[-65.028,-26.286],[-65.031,-26.286],[-65.033,-26.285],[-65.035,-26.284],[-65.038,-26.287],[-65.04,-26.288],[-65.04,-26.283],[-65.038,-26.276],[-65.04,-26.274],[-65.042,-26.272],[-65.044,-26.269],[-65.044,-26.266],[-65.046,-26.264],[-65.046,-26.26],[-65.047,-26.257],[-65.046,-26.255],[-65.046,-26.253],[-65.045,-26.251],[-65.044,-26.248],[-65.043,-26.246],[-65.044,-26.244],[-65.043,-26.242],[-65.041,-26.24],[-65.041,-26.238],[-65.039,-26.234],[-65.04,-26.232],[-65.04,-26.23],[-65.043,-26.23],[-65.045,-26.23],[-65.193,-26.192],[-65.195,-26.194],[-65.225,-26.19],[-65.227,-26.19],[-65.223,-26.183],[-65.26,-26.175],[-65.272,-26.173],[-65.271,-26.172],[-65.271,-26.171],[-65.272,-26.17],[-65.273,-26.17],[-65.273,-26.171],[-65.274,-26.171],[-65.274,-26.172],[-65.275,-26.172],[-65.276,-26.172],[-65.276,-26.171],[-65.276,-26.17],[-65.276,-26.169],[-65.276,-26.168],[-65.276,-26.167],[-65.277,-26.167],[-65.277,-26.166],[-65.278,-26.165],[-65.28,-26.166],[-65.281,-26.166],[-65.282,-26.165],[-65.281,-26.164],[-65.28,-26.163],[-65.278,-26.162],[-65.276,-26.16],[-65.275,-26.159],[-65.274,-26.158],[-65.274,-26.157],[-65.276,-26.155],[-65.277,-26.155],[-65.278,-26.155],[-65.279,-26.155],[-65.28,-26.155],[-65.281,-26.154],[-65.282,-26.153],[-65.282,-26.152],[-65.282,-26.151],[-65.281,-26.151],[-65.28,-26.15],[-65.279,-26.15],[-65.279,-26.149],[-65.28,-26.148],[-65.281,-26.147],[-65.282,-26.145],[-65.282,-26.144],[-65.283,-26.144],[-65.284,-26.144],[-65.285,-26.144],[-65.286,-26.144],[-65.285,-26.143],[-65.285,-26.141],[-65.285,-26.14],[-65.286,-26.14],[-65.286,-26.139],[-65.286,-26.138],[-65.284,-26.138],[-65.283,-26.137],[-65.283,-26.136],[-65.284,-26.136],[-65.285,-26.136],[-65.285,-26.135],[-65.286,-26.135],[-65.287,-26.135],[-65.288,-26.134],[-65.289,-26.134],[-65.289,-26.133],[-65.289,-26.132],[-65.289,-26.131],[-65.288,-26.129],[-65.288,-26.128],[-65.289,-26.127],[-65.292,-26.128],[-65.293,-26.127],[-65.294,-26.126],[-65.293,-26.125],[-65.293,-26.124],[-65.293,-26.123],[-65.293,-26.122],[-65.293,-26.12],[-65.294,-26.118],[-65.294,-26.117],[-65.293,-26.117],[-65.291,-26.115],[-65.29,-26.113],[-65.289,-26.11],[-65.29,-26.109],[-65.291,-26.108],[-65.291,-26.107],[-65.291,-26.106],[-65.292,-26.105],[-65.292,-26.102],[-65.294,-26.099],[-65.295,-26.097],[-65.296,-26.094],[-65.299,-26.093],[-65.299,-26.092],[-65.299,-26.091],[-65.3,-26.091],[-65.3,-26.09],[-65.3,-26.088],[-65.3,-26.087],[-65.299,-26.087],[-65.298,-26.087],[-65.297,-26.086],[-65.297,-26.085],[-65.297,-26.084],[-65.297,-26.083],[-65.298,-26.082],[-65.299,-26.081],[-65.3,-26.081],[-65.301,-26.081],[-65.302,-26.081],[-65.303,-26.081],[-65.304,-26.082],[-65.305,-26.083],[-65.306,-26.084],[-65.307,-26.084],[-65.308,-26.084],[-65.309,-26.084],[-65.309,-26.083],[-65.31,-26.082],[-65.311,-26.082],[-65.311,-26.081],[-65.312,-26.081],[-65.314,-26.082],[-65.315,-26.082],[-65.315,-26.083],[-65.316,-26.082],[-65.317,-26.081],[-65.318,-26.08],[-65.318,-26.078],[-65.319,-26.077],[-65.32,-26.076],[-65.321,-26.075],[-65.321,-26.073],[-65.322,-26.072],[-65.323,-26.071],[-65.323,-26.07],[-65.325,-26.069],[-65.326,-26.068],[-65.328,-26.067],[-65.33,-26.067],[-65.332,-26.066],[-65.334,-26.066],[-65.335,-26.066],[-65.335,-26.067],[-65.335,-26.068],[-65.336,-26.068],[-65.338,-26.067],[-65.339,-26.067],[-65.341,-26.066],[-65.341,-26.065],[-65.342,-26.064],[-65.344,-26.064],[-65.345,-26.064],[-65.346,-26.063],[-65.346,-26.062],[-65.347,-26.061],[-65.347,-26.06],[-65.348,-26.06],[-65.349,-26.06],[-65.35,-26.061],[-65.351,-26.06],[-65.352,-26.06],[-65.353,-26.059],[-65.354,-26.059],[-65.355,-26.06],[-65.356,-26.06],[-65.356,-26.059],[-65.357,-26.059],[-65.358,-26.059],[-65.359,-26.06],[-65.359,-26.059],[-65.36,-26.059],[-65.36,-26.058],[-65.361,-26.058],[-65.363,-26.058],[-65.363,-26.059],[-65.364,-26.059],[-65.363,-26.06],[-65.364,-26.061],[-65.366,-26.06],[-65.368,-26.06],[-65.368,-26.061],[-65.368,-26.062],[-65.368,-26.063],[-65.369,-26.063],[-65.37,-26.065],[-65.37,-26.066],[-65.371,-26.066],[-65.372,-26.066],[-65.373,-26.065],[-65.374,-26.065],[-65.375,-26.065],[-65.377,-26.068],[-65.378,-26.068],[-65.378,-26.069],[-65.379,-26.069],[-65.38,-26.07],[-65.38,-26.072],[-65.381,-26.073],[-65.382,-26.074],[-65.382,-26.075],[-65.382,-26.076],[-65.383,-26.076],[-65.383,-26.077],[-65.384,-26.078],[-65.384,-26.079],[-65.385,-26.08],[-65.386,-26.081],[-65.386,-26.082],[-65.387,-26.083],[-65.388,-26.084],[-65.389,-26.084],[-65.389,-26.085],[-65.39,-26.086],[-65.391,-26.086],[-65.392,-26.087],[-65.393,-26.088],[-65.394,-26.088],[-65.395,-26.089],[-65.397,-26.088],[-65.398,-26.088],[-65.399,-26.088],[-65.4,-26.088],[-65.4,-26.089],[-65.401,-26.09],[-65.402,-26.091],[-65.403,-26.092],[-65.404,-26.092],[-65.406,-26.092],[-65.407,-26.092],[-65.408,-26.092],[-65.408,-26.093],[-65.409,-26.093],[-65.409,-26.094],[-65.409,-26.096],[-65.411,-26.097],[-65.412,-26.097],[-65.413,-26.098],[-65.414,-26.099],[-65.415,-26.101],[-65.415,-26.102],[-65.416,-26.103],[-65.416,-26.104],[-65.417,-26.105],[-65.418,-26.105],[-65.419,-26.106],[-65.42,-26.107],[-65.421,-26.107],[-65.421,-26.108],[-65.422,-26.108],[-65.423,-26.109],[-65.424,-26.109],[-65.425,-26.109],[-65.426,-26.109],[-65.427,-26.109],[-65.429,-26.109],[-65.43,-26.11],[-65.431,-26.11],[-65.432,-26.11],[-65.433,-26.11],[-65.434,-26.11],[-65.436,-26.11],[-65.437,-26.11],[-65.438,-26.109],[-65.439,-26.109],[-65.44,-26.108],[-65.441,-26.108],[-65.441,-26.107],[-65.44,-26.107],[-65.44,-26.106],[-65.44,-26.105],[-65.44,-26.104],[-65.441,-26.104],[-65.442,-26.104],[-65.443,-26.104],[-65.444,-26.105],[-65.445,-26.105],[-65.446,-26.105],[-65.446,-26.106],[-65.447,-26.106],[-65.448,-26.106],[-65.449,-26.106],[-65.45,-26.106],[-65.451,-26.106],[-65.451,-26.105],[-65.452,-26.105],[-65.453,-26.105],[-65.454,-26.105],[-65.455,-26.105],[-65.455,-26.104],[-65.456,-26.104],[-65.457,-26.104],[-65.457,-26.103],[-65.458,-26.103],[-65.459,-26.103],[-65.458,-26.101],[-65.458,-26.1],[-65.457,-26.1],[-65.457,-26.099],[-65.457,-26.098],[-65.458,-26.097],[-65.458,-26.096],[-65.459,-26.096],[-65.459,-26.095],[-65.46,-26.095],[-65.46,-26.094],[-65.461,-26.094],[-65.462,-26.095],[-65.463,-26.095],[-65.463,-26.094],[-65.464,-26.094],[-65.464,-26.093],[-65.464,-26.092],[-65.465,-26.092],[-65.465,-26.091],[-65.467,-26.091],[-65.468,-26.091],[-65.469,-26.091],[-65.47,-26.091],[-65.47,-26.092],[-65.471,-26.092],[-65.471,-26.093],[-65.472,-26.093],[-65.473,-26.093],[-65.473,-26.094],[-65.474,-26.095],[-65.475,-26.095],[-65.476,-26.095],[-65.477,-26.095],[-65.478,-26.095],[-65.479,-26.095],[-65.48,-26.094],[-65.48,-26.093],[-65.481,-26.093],[-65.482,-26.093],[-65.482,-26.094],[-65.483,-26.094],[-65.484,-26.094],[-65.484,-26.093],[-65.485,-26.093],[-65.486,-26.093],[-65.488,-26.093],[-65.489,-26.093],[-65.489,-26.092],[-65.489,-26.091],[-65.49,-26.091],[-65.491,-26.091],[-65.491,-26.092],[-65.492,-26.092],[-65.493,-26.091],[-65.494,-26.091],[-65.494,-26.09],[-65.495,-26.09],[-65.496,-26.09],[-65.497,-26.09],[-65.498,-26.09],[-65.5,-26.09],[-65.501,-26.09],[-65.502,-26.09],[-65.503,-26.091],[-65.503,-26.09],[-65.504,-26.09],[-65.505,-26.09],[-65.506,-26.09],[-65.506,-26.091],[-65.507,-26.091],[-65.507,-26.092],[-65.508,-26.092],[-65.509,-26.092],[-65.51,-26.092],[-65.51,-26.093],[-65.511,-26.093],[-65.512,-26.093],[-65.513,-26.094],[-65.514,-26.094],[-65.514,-26.093],[-65.515,-26.093],[-65.516,-26.093],[-65.517,-26.093],[-65.517,-26.094],[-65.518,-26.094],[-65.519,-26.094],[-65.52,-26.094],[-65.52,-26.095],[-65.521,-26.095],[-65.522,-26.095],[-65.522,-26.094],[-65.523,-26.094],[-65.524,-26.095],[-65.525,-26.095],[-65.527,-26.094],[-65.528,-26.094],[-65.528,-26.093],[-65.529,-26.093],[-65.529,-26.094],[-65.53,-26.094],[-65.531,-26.094],[-65.531,-26.093],[-65.532,-26.093],[-65.532,-26.092],[-65.532,-26.091],[-65.533,-26.091],[-65.533,-26.092],[-65.534,-26.092],[-65.535,-26.092],[-65.536,-26.092],[-65.537,-26.091],[-65.538,-26.09],[-65.539,-26.09],[-65.539,-26.091],[-65.54,-26.091],[-65.541,-26.091],[-65.542,-26.091],[-65.542,-26.09],[-65.543,-26.09],[-65.543,-26.089],[-65.545,-26.089],[-65.546,-26.088],[-65.547,-26.088],[-65.548,-26.088],[-65.548,-26.087],[-65.549,-26.088],[-65.55,-26.089],[-65.55,-26.088],[-65.551,-26.088],[-65.552,-26.088],[-65.552,-26.089],[-65.552,-26.09],[-65.553,-26.09],[-65.554,-26.09],[-65.554,-26.091],[-65.554,-26.092],[-65.555,-26.092],[-65.556,-26.092],[-65.557,-26.093],[-65.558,-26.093],[-65.558,-26.094],[-65.559,-26.094],[-65.56,-26.094],[-65.561,-26.094],[-65.561,-26.093],[-65.562,-26.093],[-65.562,-26.094],[-65.563,-26.094],[-65.563,-26.095],[-65.564,-26.096],[-65.565,-26.096],[-65.566,-26.096],[-65.566,-26.097],[-65.567,-26.097],[-65.568,-26.097],[-65.569,-26.097],[-65.569,-26.098],[-65.569,-26.099],[-65.569,-26.1],[-65.57,-26.1],[-65.57,-26.101],[-65.571,-26.101],[-65.572,-26.101],[-65.572,-26.102],[-65.573,-26.102],[-65.573,-26.103],[-65.574,-26.103],[-65.575,-26.104],[-65.576,-26.104],[-65.577,-26.104],[-65.577,-26.105],[-65.578,-26.105],[-65.579,-26.106],[-65.58,-26.106],[-65.581,-26.106],[-65.581,-26.107],[-65.582,-26.107],[-65.582,-26.108],[-65.583,-26.109],[-65.584,-26.109],[-65.584,-26.11],[-65.585,-26.11],[-65.586,-26.111],[-65.586,-26.112],[-65.587,-26.112],[-65.587,-26.113],[-65.587,-26.114],[-65.588,-26.115],[-65.589,-26.115],[-65.59,-26.115],[-65.59,-26.114],[-65.591,-26.114],[-65.592,-26.114],[-65.593,-26.114],[-65.594,-26.114],[-65.595,-26.114],[-65.596,-26.113],[-65.596,-26.114],[-65.597,-26.114],[-65.597,-26.115],[-65.597,-26.116],[-65.598,-26.116],[-65.598,-26.117],[-65.599,-26.118],[-65.6,-26.119],[-65.601,-26.12],[-65.602,-26.121],[-65.603,-26.121],[-65.604,-26.121],[-65.605,-26.121],[-65.606,-26.121],[-65.607,-26.121],[-65.608,-26.121],[-65.609,-26.122],[-65.61,-26.122],[-65.611,-26.122],[-65.612,-26.123],[-65.613,-26.123],[-65.614,-26.123],[-65.614,-26.124],[-65.615,-26.123],[-65.616,-26.124],[-65.617,-26.124],[-65.618,-26.124],[-65.618,-26.123],[-65.619,-26.123],[-65.62,-26.123],[-65.621,-26.123],[-65.622,-26.123],[-65.623,-26.122],[-65.624,-26.122],[-65.626,-26.123],[-65.627,-26.123],[-65.628,-26.123],[-65.629,-26.123],[-65.63,-26.123],[-65.631,-26.123],[-65.631,-26.122],[-65.632,-26.122],[-65.632,-26.121],[-65.633,-26.121],[-65.634,-26.12],[-65.635,-26.12],[-65.635,-26.119],[-65.636,-26.119],[-65.636,-26.118],[-65.637,-26.117],[-65.637,-26.116],[-65.638,-26.116],[-65.638,-26.115],[-65.639,-26.115],[-65.639,-26.114],[-65.64,-26.114],[-65.64,-26.113],[-65.64,-26.112],[-65.639,-26.112],[-65.639,-26.111],[-65.64,-26.111],[-65.641,-26.111],[-65.642,-26.112],[-65.643,-26.112],[-65.643,-26.113],[-65.644,-26.113],[-65.645,-26.113],[-65.645,-26.114],[-65.646,-26.114],[-65.648,-26.113],[-65.649,-26.113],[-65.65,-26.113],[-65.651,-26.114],[-65.653,-26.114],[-65.654,-26.114],[-65.654,-26.113],[-65.655,-26.113],[-65.656,-26.113],[-65.656,-26.114],[-65.656,-26.115],[-65.657,-26.115],[-65.657,-26.116],[-65.658,-26.116],[-65.658,-26.115],[-65.659,-26.116],[-65.66,-26.116],[-65.66,-26.117],[-65.661,-26.117],[-65.662,-26.117],[-65.663,-26.117],[-65.664,-26.117],[-65.665,-26.117],[-65.666,-26.117],[-65.667,-26.117],[-65.668,-26.117],[-65.669,-26.117],[-65.67,-26.117],[-65.671,-26.117],[-65.672,-26.117],[-65.673,-26.117],[-65.674,-26.117],[-65.675,-26.117],[-65.676,-26.117],[-65.677,-26.117],[-65.678,-26.117],[-65.679,-26.117],[-65.68,-26.117],[-65.681,-26.117],[-65.682,-26.117],[-65.683,-26.117],[-65.685,-26.117],[-65.687,-26.117],[-65.688,-26.117],[-65.689,-26.12],[-65.689,-26.121],[-65.689,-26.122],[-65.689,-26.123],[-65.689,-26.125],[-65.69,-26.126],[-65.69,-26.128],[-65.691,-26.129],[-65.692,-26.131],[-65.693,-26.132],[-65.694,-26.135],[-65.694,-26.137],[-65.695,-26.139],[-65.695,-26.14],[-65.695,-26.141],[-65.696,-26.141],[-65.697,-26.142],[-65.698,-26.144],[-65.698,-26.145],[-65.698,-26.147],[-65.698,-26.149],[-65.698,-26.15],[-65.698,-26.152],[-65.699,-26.153],[-65.699,-26.155],[-65.7,-26.156],[-65.7,-26.158],[-65.698,-26.159],[-65.698,-26.16],[-65.697,-26.161],[-65.695,-26.162],[-65.694,-26.163],[-65.693,-26.164],[-65.692,-26.165],[-65.693,-26.165],[-65.693,-26.166],[-65.694,-26.167],[-65.695,-26.168],[-65.695,-26.169],[-65.696,-26.17],[-65.695,-26.171],[-65.695,-26.172],[-65.694,-26.173],[-65.694,-26.174],[-65.694,-26.176],[-65.695,-26.177],[-65.695,-26.178],[-65.695,-26.18],[-65.695,-26.181],[-65.695,-26.183],[-65.695,-26.184],[-65.695,-26.185],[-65.695,-26.186],[-65.696,-26.187],[-65.697,-26.187],[-65.699,-26.188],[-65.7,-26.188],[-65.701,-26.188],[-65.702,-26.189],[-65.703,-26.19],[-65.703,-26.192],[-65.703,-26.193],[-65.703,-26.195],[-65.703,-26.196],[-65.703,-26.197],[-65.703,-26.198],[-65.703,-26.199],[-65.703,-26.2],[-65.704,-26.201],[-65.704,-26.202],[-65.705,-26.203],[-65.706,-26.204],[-65.707,-26.205],[-65.708,-26.206],[-65.709,-26.206],[-65.71,-26.207],[-65.71,-26.208],[-65.71,-26.209],[-65.71,-26.21],[-65.71,-26.211],[-65.711,-26.212],[-65.71,-26.213],[-65.71,-26.214],[-65.71,-26.215],[-65.71,-26.216],[-65.71,-26.217],[-65.71,-26.218],[-65.711,-26.219],[-65.711,-26.22],[-65.711,-26.221],[-65.708,-26.222],[-65.707,-26.222],[-65.705,-26.223],[-65.704,-26.224],[-65.703,-26.225],[-65.703,-26.227],[-65.702,-26.229],[-65.702,-26.231],[-65.702,-26.232],[-65.702,-26.234],[-65.702,-26.235],[-65.702,-26.237],[-65.702,-26.238],[-65.703,-26.24],[-65.703,-26.242],[-65.704,-26.243],[-65.706,-26.245],[-65.708,-26.246],[-65.709,-26.248],[-65.71,-26.249],[-65.71,-26.25],[-65.711,-26.251],[-65.712,-26.252],[-65.712,-26.253],[-65.711,-26.254],[-65.709,-26.256],[-65.708,-26.257],[-65.708,-26.258],[-65.709,-26.261],[-65.711,-26.262],[-65.713,-26.264],[-65.715,-26.266],[-65.716,-26.269],[-65.718,-26.272],[-65.719,-26.274],[-65.719,-26.275],[-65.72,-26.276],[-65.721,-26.278],[-65.722,-26.278],[-65.724,-26.279],[-65.723,-26.28],[-65.722,-26.28],[-65.721,-26.281],[-65.72,-26.282],[-65.719,-26.283],[-65.718,-26.284],[-65.717,-26.285],[-65.716,-26.286],[-65.715,-26.287],[-65.714,-26.288],[-65.713,-26.289],[-65.712,-26.29],[-65.711,-26.291],[-65.71,-26.292],[-65.709,-26.292],[-65.709,-26.293],[-65.708,-26.295],[-65.707,-26.296],[-65.707,-26.297],[-65.707,-26.299],[-65.71,-26.301],[-65.712,-26.303],[-65.715,-26.305],[-65.716,-26.306],[-65.717,-26.306],[-65.718,-26.307],[-65.72,-26.308],[-65.721,-26.308],[-65.722,-26.309],[-65.722,-26.31],[-65.722,-26.311],[-65.723,-26.312],[-65.723,-26.313],[-65.723,-26.314],[-65.721,-26.315],[-65.72,-26.315],[-65.72,-26.316],[-65.719,-26.317],[-65.719,-26.319],[-65.718,-26.32],[-65.717,-26.321],[-65.717,-26.323],[-65.716,-26.324],[-65.715,-26.325],[-65.714,-26.326],[-65.713,-26.327],[-65.712,-26.329],[-65.712,-26.33],[-65.711,-26.332],[-65.711,-26.333],[-65.711,-26.334],[-65.712,-26.335],[-65.712,-26.336],[-65.711,-26.337],[-65.711,-26.339],[-65.711,-26.34],[-65.711,-26.341],[-65.712,-26.343],[-65.712,-26.344],[-65.714,-26.346],[-65.716,-26.348],[-65.716,-26.349],[-65.716,-26.35],[-65.717,-26.352],[-65.718,-26.352],[-65.719,-26.353],[-65.753,-26.342],[-65.929,-26.286],[-66,-26.264],[-66.028,-26.252],[-66.033,-26.25],[-66.036,-26.25],[-66.038,-26.251],[-66.04,-26.251],[-66.042,-26.249],[-66.043,-26.245],[-66.044,-26.243],[-66.047,-26.241],[-66.05,-26.241],[-66.054,-26.241],[-66.06,-26.24],[-66.064,-26.24],[-66.071,-26.239],[-66.074,-26.237],[-66.1,-26.22],[-66.101,-26.226],[-66.102,-26.229],[-66.101,-26.232],[-66.101,-26.233],[-66.101,-26.235],[-66.099,-26.237],[-66.097,-26.243],[-66.097,-26.248],[-66.098,-26.251],[-66.1,-26.254],[-66.102,-26.257],[-66.103,-26.26],[-66.106,-26.261],[-66.11,-26.261],[-66.112,-26.261],[-66.114,-26.261],[-66.116,-26.262],[-66.118,-26.264],[-66.119,-26.268],[-66.12,-26.272],[-66.121,-26.276],[-66.121,-26.278],[-66.12,-26.282],[-66.122,-26.284],[-66.122,-26.286],[-66.121,-26.287],[-66.12,-26.289],[-66.122,-26.292],[-66.121,-26.295],[-66.121,-26.303],[-66.122,-26.305],[-66.123,-26.307],[-66.125,-26.307],[-66.124,-26.309],[-66.124,-26.31],[-66.121,-26.315],[-66.118,-26.321],[-66.118,-26.324],[-66.117,-26.327],[-66.116,-26.33],[-66.115,-26.334],[-66.114,-26.343],[-66.115,-26.346],[-66.116,-26.348],[-66.117,-26.351],[-66.118,-26.354],[-66.117,-26.356],[-66.118,-26.36],[-66.118,-26.362],[-66.117,-26.364],[-66.119,-26.368],[-66.12,-26.373],[-66.119,-26.374],[-66.119,-26.377],[-66.122,-26.379],[-66.124,-26.383],[-66.124,-26.386],[-66.126,-26.389],[-66.129,-26.39],[-66.134,-26.391],[-66.137,-26.391],[-66.141,-26.392],[-66.148,-26.395],[-66.153,-26.396],[-66.156,-26.398],[-66.158,-26.401],[-66.161,-26.419],[-66.16,-26.421],[-66.156,-26.424],[-66.155,-26.428],[-66.154,-26.432],[-66.153,-26.436],[-66.154,-26.439],[-66.154,-26.44],[-66.156,-26.448],[-66.161,-26.454],[-66.161,-26.457],[-66.163,-26.459],[-66.166,-26.461],[-66.168,-26.464],[-66.17,-26.466],[-66.172,-26.468],[-66.177,-26.469],[-66.178,-26.471],[-66.177,-26.474],[-66.178,-26.483]]]}}]}